ONEWEB-0300             
1 49089U 21075Q   25279.38667483 -.00000041  00000+0 -14913-3 0  9992
2 49089  87.8948  41.0682 0001392  95.0797 265.0490 13.12442819201913
ONEWEB-0301             
1 49090U 21075R   25279.37045099 -.00000322  00000+0 -92952-3 0  9997
2 49090  87.8942  41.0751 0001285  94.6411 265.4865 13.12442943201272
ONEWEB-0302             
1 49091U 21075S   25279.35747791 -.00000222  00000+0 -65344-3 0  9998
2 49091  87.8946  41.0846 0002050 103.8265 256.3092 13.12441559201254
ONEWEB-0304             
1 49092U 21075T   25279.46560850  .00000005  00000+0 -21564-4 0  9995
2 49092  87.9092  56.3189 0001787  93.3504 266.7832 13.17649672200169
ONEWEB-0305             
1 49093U 21075U   25279.45886387  .00000054  00000+0  10709-3 0  9992
2 49093  87.9093  56.2968 0002021  88.3823 271.7540 13.17648482200198
ONEWEB-0308             
1 49094U 21075V   25279.57970488  .00000114  00000+0  28157-3 0  9995
2 49094  87.8950  41.0326 0001707 100.1280 260.0041 13.12442710201290
ONEWEB-0309             
1 49095U 21075W   25279.38627554  .00000120  00000+0  27535-3 0  9994
2 49095  87.9092  56.3280 0002092 104.4789 255.6575 13.17650539200157
ONEWEB-0310             
1 49096U 21075X   25279.36558682 -.00000327  00000+0 -94368-3 0  9997
2 49096  87.8936  41.1174 0001852 101.3761 258.7576 13.12442667201890
